OBJECT_NAME,OBJECT_ID,EPOCH,MEAN_MOTION,ECCENTRICITY,INCLINATION,RA_OF_ASC_NODE,ARG_OF_PERICENTER,MEAN_ANOMALY,EPHEMERIS_TYPE,CLASSIFICATION_TYPE,NORAD_CAT_ID,ELEMENT_SET_NO,REV_AT_EPOCH,BSTAR,MEAN_MOTION_DOT,MEAN_MOTION_DDOT
STARLINK-32831,2025-022G,2026-06-28T14:25:29.596800,15.34411905,.00006929,53.1592,333.5596,115.0411,245.0664,0,U,62860,999,7888,.67781672E-3,.22603E-3,0
STARLINK-32859,2025-022H,2026-06-28T15:29:07.529856,15.34405591,.00012864,53.1600,333.8348,85.9236,274.1913,0,U,62861,999,7889,.59762678E-3,.19873E-3,0
STARLINK-32864,2025-022J,2026-06-28T14:43:40.039104,15.34384478,.0001226,53.1619,333.6238,87.4903,272.6240,0,U,62862,999,7889,.66286801E-3,.22075E-3,0
STARLINK-32808,2025-022K,2026-06-28T13:43:12.389088,15.34403004,.00011561,53.1608,334.0827,88.8058,271.3078,0,U,62863,999,7888,.5746592E-3,.19091E-3,0
STARLINK-32862,2025-022L,2026-06-28T14:58:49.817280,15.34429865,.00011273,53.1609,333.7035,85.1738,274.9393,0,U,62864,999,7889,.92814063E-3,.31142E-3,0
STARLINK-32841,2025-022M,2026-06-28T14:55:47.934048,15.34410768,.00006909,53.1610,333.6921,94.7504,265.3578,0,U,62865,999,7888,.10258762E-2,.34456E-3,0
STARLINK-32695,2025-022N,2026-06-28T14:36:56.063808,15.34402959,.00013045,53.1598,332.1905,82.2865,277.8286,0,U,62866,999,7891,.34072173E-3,.11154E-3,0
STARLINK-32846,2025-022P,2026-06-28T15:01:51.563136,15.34412240,.00020034,53.1614,333.6972,90.0040,270.1192,0,U,62867,999,7889,.819865E-3,.27437E-3,0
STARLINK-32822,2025-022Q,2026-06-28T14:37:36.687360,15.34399275,.00007038,53.1595,333.6107,74.0703,286.0377,0,U,62868,999,7889,.27448571E-3,.8909E-4,0
STARLINK-32813,2025-022R,2026-06-28T15:07:54.828480,15.34408482,.00012587,53.1624,333.7419,74.6088,285.5053,0,U,62869,999,7889,.69863553E-3,.23308E-3,0
STARLINK-32861,2025-022S,2026-06-28T14:39:57.344832,15.34384731,.00015504,53.1598,332.2060,94.4692,265.6488,0,U,62870,999,7891,.1971032E-3,.6286E-4,0
STARLINK-32814,2025-022T,2026-06-28T14:28:31.245888,15.34415379,.00008347,53.1596,333.5756,351.4635,8.6353,0,U,62871,999,7889,.51708067E-3,.17143E-3,0
STARLINK-32849,2025-022U,2026-06-28T14:31:33.187008,15.34402038,.00012814,53.1605,333.5891,80.3419,279.7728,0,U,62872,999,7889,.3691701E-3,.12118E-3,0
STARLINK-32833,2025-022V,2026-06-28T14:52:45.707808,15.34405933,.00013618,53.1626,333.6762,81.7828,278.3329,0,U,62873,999,7889,.49993956E-3,.16555E-3,0
STARLINK-32793,2025-022W,2026-06-28T14:01:23.310912,15.34403624,.00007308,53.1594,334.1684,62.8328,297.2749,0,U,62874,999,7888,.77435129E-3,.2588E-3,0
STARLINK-32834,2025-022X,2026-06-28T14:34:35.186880,15.34408982,.00010535,53.1605,333.5978,118.1443,241.9666,0,U,62875,999,7889,.91386689E-3,.30635E-3,0
STARLINK-11371 [DTC],2025-024A,2026-06-28T12:24:51.569856,15.70927758,.00027911,42.9985,233.7200,262.6449,97.4101,0,U,62879,999,8089,.13599025E-2,.178515E-2,0
STARLINK-11352 [DTC],2025-024B,2026-06-27T11:06:23.348736,15.70924999,.00012706,42.9999,239.5503,234.5973,125.4776,0,U,62880,999,8073,.18696319E-2,.247618E-2,0
STARLINK-11382 [DTC],2025-024C,2026-06-28T13:33:29.490624,15.70825607,.00012626,42.9995,233.2069,293.1840,66.8895,0,U,62881,999,8090,.11870102E-2,.154632E-2,0
STARLINK-11432 [DTC],2025-024D,2026-06-28T12:17:12.942240,15.70869262,.00020393,43.0018,233.6750,268.0495,92.0139,0,U,62882,999,8089,.11656024E-2,.152071E-2,0
STARLINK-11419 [DTC],2025-024E,2026-06-28T14:57:23.916672,15.70886676,.00025266,43.0014,232.7795,269.3728,90.6851,0,U,62883,999,8091,.12556409E-2,.16422E-2,0
STARLINK-11437 [DTC],2025-024F,2026-06-28T12:09:34.074432,15.70919280,.00031856,42.9987,233.6313,267.5519,92.4984,0,U,62884,999,8089,.131398E-2,.172288E-2,0
STARLINK-11442 [DTC],2025-024G,2026-06-28T12:47:37.676544,15.70965188,.000239,43.0011,232.9479,352.1180,7.9650,0,U,62885,999,8090,.13084127E-2,.171864E-2,0
STARLINK-11365 [DTC],2025-024H,2026-06-27T15:33:24.995808,15.70864362,.00025086,43.0001,238.3566,261.3567,98.7017,0,U,62886,999,8076,.83946443E-3,.108806E-2,0
STARLINK-11436 [DTC],2025-024J,2026-06-28T11:46:38.155296,15.70914201,.00021295,42.9995,233.5003,266.9342,93.1282,0,U,62887,999,8089,.11949141E-2,.156283E-2,0
STARLINK-11438 [DTC],2025-024K,2026-06-27T15:34:45.024672,15.70869575,.00022258,43.0016,238.3608,27.5822,332.5164,0,U,62888,999,8076,.10789152E-2,.140535E-2,0
STARLINK-11391 [DTC],2025-024L,2026-06-28T11:30:44.072928,15.72075319,.00064671,42.9983,233.4022,324.8993,35.1448,0,U,62889,999,8089,.12656471E-2,.174426E-2,0
STARLINK-11431 [DTC],2025-024M,2026-06-27T13:46:44.168448,15.70947771,.00030753,43.0013,239.5472,266.3668,93.6848,0,U,62890,999,8074,.10874966E-2,.142164E-2,0
STARLINK-11435 [DTC],2025-024N,2026-06-28T12:32:30.441984,15.70869092,.00020235,43.0019,233.7560,270.7537,89.3099,0,U,62891,999,8089,.15734922E-2,.20681E-2,0
STARLINK-32878,2025-024P,2026-06-28T09:12:33.531552,15.27573004,.00014246,43.0027,60.3556,258.8634,101.2058,0,U,62892,999,7919,.71765685E-3,.19534E-3,0
STARLINK-32892,2025-024Q,2026-06-28T09:18:06.972480,15.27594799,.00007716,43.0043,60.3810,273.4409,86.6354,0,U,62893,999,7919,.58349531E-3,.15836E-3,0
STARLINK-32909,2025-024R,2026-06-28T09:27:22.013856,15.27591776,.00017587,43.0051,60.4327,270.3009,89.7641,0,U,62894,999,7919,.68656498E-3,.18685E-3,0
STARLINK-32901,2025-024S,2026-06-28T08:46:38.106912,15.27576388,.00008762,43.0004,60.2148,55.1870,304.9064,0,U,62895,999,7919,-.1935234E-2,-.53128E-3,0
STARLINK-32890,2025-024T,2026-06-27T22:39:09.599040,15.27595177,.0001553,43.0044,62.2105,280.5203,79.5474,0,U,62896,999,7913,.69608E-3,.18951E-3,0
STARLINK-32893,2025-024U,2026-06-27T22:55:50.149920,15.27600564,.0001043,42.9968,62.2918,234.8854,125.1900,0,U,62897,999,7913,.12664E-2,.34774E-3,0
STARLINK-32902,2025-024V,2026-06-27T22:50:15.096768,15.27557684,.0001295,43.0013,62.2609,284.5648,75.5060,0,U,62898,999,7913,.84687E-3,.23099E-3,0
STARLINK-32661,2025-024W,2026-06-28T08:52:11.953920,15.27598235,.00023753,42.9951,60.2464,269.2301,90.8279,0,U,62899,999,7919,.59611902E-3,.16188E-3,0
STARLINK-11552 [DTC],2025-027A,2026-06-28T08:12:28.215072,15.70900476,.00008882,42.9995,40.8017,326.8571,33.2241,0,U,62907,999,8059,.16889023E-2,.222733E-2,0
STARLINK-11561 [DTC],2025-027B,2026-06-28T07:34:13.883808,15.70953379,.00026014,43.0014,40.5846,287.6655,72.3929,0,U,62908,999,8055,.15817959E-2,.208697E-2,0
STARLINK-11567 [DTC],2025-027C,2026-06-27T23:26:02.063328,15.70856117,.00016044,43.0010,43.2270,274.9256,85.1429,0,U,62909,999,8049,.60940427E-3,.78542E-3,0
STARLINK-11569 [DTC],2025-027D,2026-06-28T13:55:45.475680,15.70871333,.00021955,43.0012,39.1375,257.6136,102.4486,0,U,62910,999,8059,.11300895E-2,.147355E-2,0
STARLINK-11537 [DTC],2025-027E,2026-06-28T08:04:49.018080,15.70925980,.00017917,43.0020,40.7555,274.0822,85.9841,0,U,62911,999,8059,.1224442E-2,.16031E-2,0
STARLINK-11565 [DTC],2025-027F,2026-06-28T07:18:56.681280,15.70910604,.00019709,43.0001,40.4985,293.5949,66.4712,0,U,62912,999,8055,.18763128E-2,.248378E-2,0
STARLINK-11564 [DTC],2025-027G,2026-06-27T21:39:10.917216,15.70886238,.0001371,43.0010,43.5228,161.8195,198.2722,0,U,62913,999,8048,.17867E-2,.235889E-2,0
STARLINK-11566 [DTC],2025-027H,2026-06-27T23:18:23.275872,15.70915461,.00028481,43.0024,43.1822,265.4409,94.6133,0,U,62914,999,8053,.12568239E-2,.164587E-2,0
STARLINK-11555 [DTC],2025-027J,2026-06-28T14:35:18.086208,15.70946730,.00014156,42.9995,39.3569,266.5047,93.5659,0,U,62915,999,8063,.13806385E-2,.181438E-2,0
STARLINK-11430 [DTC],2025-027K,2026-06-28T14:49:16.928256,15.70940136,.00007803,43.0003,39.4361,208.4988,151.5837,0,U,62916,999,8063,.12529795E-2,.16423E-2,0
STARLINK-11560 [DTC],2025-027L,2026-06-28T14:03:24.227712,15.70865828,.00023918,43.0015,39.1780,258.7475,101.3124,0,U,62917,999,8059,.1142956E-2,.149035E-2,0
STARLINK-11562 [DTC],2025-027M,2026-06-28T07:41:52.768896,15.70918739,.00018795,43.0003,40.6238,283.4755,76.5903,0,U,62918,999,8059,.12871724E-2,.168666E-2,0
STARLINK-11457 [DTC],2025-027N,2026-06-28T15:04:23.113920,15.70886918,.0001508,42.9988,38.6210,274.1742,85.8953,0,U,62919,999,8060,.1245378E-2,.162839E-2,0
STARLINK-32921,2025-027P,2026-06-28T12:26:28.862304,15.27597906,.00021884,43.0012,222.8437,260.6005,99.4599,0,U,62920,999,7849,.88129422E-3,.24082E-3,0
STARLINK-32917,2025-027Q,2026-06-28T11:12:40.837248,15.27595022,.00016155,42.9987,223.3131,267.4120,92.6546,0,U,62921,999,7848,.78303428E-3,.21358E-3,0
STARLINK-32916,2025-027R,2026-06-28T10:57:52.585632,15.27594508,.00017294,43.0008,223.2355,269.8039,90.2615,0,U,62922,999,7848,.8112207E-3,.22138E-3,0
STARLINK-32905,2025-027S,2026-06-28T11:29:21.327648,15.27590884,.00013668,43.0001,223.3999,277.4440,82.6256,0,U,62923,999,7848,.41204063E-3,.11097E-3,0
STARLINK-32871,2025-027T,2026-06-28T14:15:26.137728,15.27595099,.00014271,42.9984,222.5413,279.6144,80.4546,0,U,62924,999,7850,.4533617E-3,.1224E-3,0
STARLINK-32920,2025-027U,2026-06-28T14:09:52.949088,15.27600907,.00019377,42.9996,222.5130,257.5053,102.5582,0,U,62925,999,7850,.77955835E-3,.21266E-3,0
STARLINK-32922,2025-027V,2026-06-28T11:23:46.798080,15.27593629,.00013994,43.0002,223.3662,270.3999,89.6693,0,U,62926,999,7848,.69078867E-3,.18803E-3,0
STARLINK-32891,2025-027W,2026-06-28T11:33:02.185920,15.27586329,.00004106,42.9988,223.4171,341.8635,18.2202,0,U,62927,999,7860,.49425814E-3,.13366E-3,0
STARLINK-32728,2025-029A,2026-06-28T09:55:04.234944,15.34409666,.0001027,53.1586,75.0578,117.9979,242.1128,0,U,62948,999,7835,.61382874E-3,.20426E-3,0
STARLINK-32857,2025-029B,2026-06-28T10:10:05.047392,15.34419505,.00012256,53.1603,74.4193,126.5342,233.5774,0,U,62949,999,7836,.71830806E-3,.23986E-3,0
STARLINK-32850,2025-029C,2026-06-28T10:45:09.958752,15.31728379,.00014605,53.1598,77.3997,90.8362,269.2807,0,U,62950,999,7829,.97787696E-3,.30129E-3,0
STARLINK-32875,2025-029D,2026-06-28T10:07:03.882144,15.34407928,.00015936,53.1608,74.3999,79.0355,281.0827,0,U,62951,999,7833,.88029621E-3,.29491E-3,0
STARLINK-32865,2025-029E,2026-06-28T10:38:26.778336,15.31724328,.00015108,53.1599,77.3700,89.9716,270.1459,0,U,62952,999,7829,.10187591E-2,.31405E-3,0
